{
	"type": "FeatureCollection",
	"crs": {
		"type": "name",
		"properties": {
			"name": "urn:ogc:def:crs:OGC:1.3:CRS84"
		}
	},
	"features": [
		{
			"type": "Feature",
			"properties": {
				"sna": "YouBike2.0_捷運科技大樓站",
				"sno": 500101001,
				"available_rent_general_bikes": 2,
				"available_return_bikes": 25,
				"total_bikes": 27
			},
			"geometry": {
				"type": "Point",
				"coordinates": [121.5436, 25.02605]
			}
		},
		{
			"type": "Feature",
			"properties": {
				"sna": "YouBike2.0_復興南路二段273號前",
				"sno": 500101002,
				"available_rent_general_bikes": 1,
				"available_return_bikes": 20,
				"total_bikes": 21
			},
			"geometry": {
				"type": "Point",
				"coordinates": [121.54357, 25.02565]
			}
		},
		{
			"type": "Feature",
			"properties": {
				"sna": "YouBike2.0_國北教大實小東側門",
				"sno": 500101003,
				"available_rent_general_bikes": 3,
				"available_return_bikes": 13,
				"total_bikes": 16
			},
			"geometry": {
				"type": "Point",
				"coordinates": [121.54124, 25.02429]
			}
		},
		{
			"type": "Feature",
			"properties": {
				"sna": "YouBike2.0_和平公園東側",
				"sno": 500101004,
				"available_rent_general_bikes": 3,
				"available_return_bikes": 8,
				"total_bikes": 11
			},
			"geometry": {
				"type": "Point",
				"coordinates": [121.54282, 25.02351]
			}
		},
		{
			"type": "Feature",
			"properties": {
				"sna": "YouBike2.0_辛亥復興路口西北側",
				"sno": 500101005,
				"available_rent_general_bikes": 13,
				"available_return_bikes": 3,
				"total_bikes": 16
			},
			"geometry": {
				"type": "Point",
				"coordinates": [121.54299, 25.02153]
			}
		},
		{
			"type": "Feature",
			"properties": {
				"sna": "YouBike2.0_復興南路二段280號前",
				"sno": 500101006,
				"available_rent_general_bikes": 1,
				"available_return_bikes": 26,
				"total_bikes": 27
			},
			"geometry": {
				"type": "Point",
				"coordinates": [121.54328, 25.02429]
			}
		},
		{
			"type": "Feature",
			"properties": {
				"sna": "YouBike2.0_復興南路二段340巷口",
				"sno": 500101007,
				"available_rent_general_bikes": 2,
				"available_return_bikes": 7,
				"total_bikes": 9
			},
			"geometry": {
				"type": "Point",
				"coordinates": [121.54326, 25.02253]
			}
		},
		{
			"type": "Feature",
			"properties": {
				"sna": "YouBike2.0_新生南路三段52號前",
				"sno": 500101008,
				"available_rent_general_bikes": 1,
				"available_return_bikes": 15,
				"total_bikes": 16
			},
			"geometry": {
				"type": "Point",
				"coordinates": [121.53407, 25.02112]
			}
		},
		{
			"type": "Feature",
			"properties": {
				"sna": "YouBike2.0_新生南路三段66號前",
				"sno": 500101009,
				"available_rent_general_bikes": 0,
				"available_return_bikes": 16,
				"total_bikes": 16
			},
			"geometry": {
				"type": "Point",
				"coordinates": [121.53384, 25.01976]
			}
		},
		{
			"type": "Feature",
			"properties": {
				"sna": "YouBike2.0_新生南路三段82號前",
				"sno": 500101010,
				"available_rent_general_bikes": 3,
				"available_return_bikes": 16,
				"total_bikes": 19
			},
			"geometry": {
				"type": "Point",
				"coordinates": [121.53361, 25.01894]
			}
		},
		{
			"type": "Feature",
			"properties": {
				"sna": "YouBike2.0_辛亥路一段30號前",
				"sno": 500101012,
				"available_rent_general_bikes": 0,
				"available_return_bikes": 8,
				"total_bikes": 8
			},
			"geometry": {
				"type": "Point",
				"coordinates": [121.52982, 25.01986]
			}
		}
	]
}
